{
  "type": "FeatureCollection",
  "generator": "overpass-turbo",
  "copyright": "The data included in this document is from www.openstreetmap.org. The data is made available under ODbL.",
  "timestamp": "2025-05-16T11:00:55Z",
  "features": [
    {
      "type": "Feature",
      "properties": {
        "@id": "relation/18796450",
        "access": "yes",
        "addr:city": "Carnforth",
        "addr:postcode": "LA6 1JF",
        "amenity": "charging_station",
        "authentication:none": "yes",
        "brand": "Gridserve",
        "brand:wikidata": "Q89575318",
        "fee": "yes",
        "opening_hours": "24/7",
        "operator": "Gridserve",
        "operator:wikidata": "Q89575318",
        "payment:contactless": "yes",
        "phone": "+44 800 240 4242",
        "ref": "cf2692ee-5188-471c-b96e-f33eca3e97cd",
        "ref_name": "MOTO Burton-in-Kendal",
        "socket:chademo": "5;1",
        "socket:chademo:output": "100 kW;60 kW",
        "socket:type2": "2",
        "socket:type2:output": "11 kW",
        "socket:type2_combo": "12;3",
        "socket:type2_combo:output": "350 kW;60 kW",
        "source:ref": "Location ID in the Gridserve Open Data API released to comply with The Public Charge Point Regulations 2023. https://gridserve.com/open-data/",
        "type": "multipolygon",
        "website": "https://electrichighway.gridserve.com",
        "@timestamp": "2025-03-08T16:07:57Z",
        "@version": 1,
        "@changeset": 163370325,
        "@user": "RobJN",
        "@uid": 411244,
        "@geometry": "center"
      },
      "geometry": {
        "type": "Point",
        "coordinates": [
          -2.7344732,
          54.1787623
        ]
      },
      "id": "relation/18796450"
    },
    {
      "type": "Feature",
      "properties": {
        "@id": "relation/18796451",
        "addr:city": "Carlisle",
        "addr:postcode": "CA4 0NT",
        "amenity": "charging_station",
        "brand": "Gridserve",
        "brand:wikidata": "Q89575318",
        "opening_hours": "24/7",
        "operator": "Gridserve",
        "operator:wikidata": "Q89575318",
        "phone": "+44 800 240 4242",
        "ref": "5baad322-c789-4612-9a02-24300d6560ff",
        "ref_name": "MOTO Southwaite Southbound",
        "socket:chademo": "1",
        "socket:chademo:output": "50 kW",
        "socket:type2": "2",
        "socket:type2:output": "11 kW",
        "socket:type2_combo": "6;3",
        "socket:type2_combo:output": "142 kW;50 kW",
        "source:ref": "Location ID in the Gridserve Open Data API released to comply with The Public Charge Point Regulations 2023. https://gridserve.com/open-data/",
        "type": "multipolygon",
        "website": "https://electrichighway.gridserve.com",
        "@timestamp": "2025-03-08T16:07:57Z",
        "@version": 1,
        "@changeset": 163370325,
        "@user": "RobJN",
        "@uid": 411244,
        "@geometry": "center"
      },
      "geometry": {
        "type": "Point",
        "coordinates": [
          -2.8690118,
          54.7985932
        ]
      },
      "id": "relation/18796451"
    },
    {
      "type": "Feature",
      "properties": {
        "@id": "relation/18819296",
        "addr:city": "Birtley",
        "addr:postcode": "DH3 2SJ",
        "amenity": "charging_station",
        "brand": "Gridserve",
        "brand:wikidata": "Q89575318",
        "opening_hours": "24/7",
        "operator": "Gridserve",
        "operator:wikidata": "Q89575318",
        "phone": "+44 800 240 4242",
        "ref": "e05a8ff4-3d27-4682-85e7-e69073e49d95",
        "ref_name": "MOTO Washington North",
        "socket:chademo": "3;1",
        "socket:chademo:output": "100 kW;60 kW",
        "socket:type2": "2",
        "socket:type2:output": "11 kW",
        "socket:type2_combo": "6;3",
        "socket:type2_combo:output": "350 kW;60 kW",
        "source:ref": "Location ID in the Gridserve Open Data API released to comply with The Public Charge Point Regulations 2023. https://gridserve.com/open-data/",
        "type": "multipolygon",
        "website": "https://electrichighway.gridserve.com",
        "@timestamp": "2025-03-13T22:36:26Z",
        "@version": 1,
        "@changeset": 163591161,
        "@user": "RobJN",
        "@uid": 411244,
        "@geometry": "center"
      },
      "geometry": {
        "type": "Point",
        "coordinates": [
          -1.560384,
          54.8897408
        ]
      },
      "id": "relation/18819296"
    },
    {
      "type": "Feature",
      "properties": {
        "@id": "relation/18819383",
        "addr:city": "Ingmanthorpe",
        "addr:postcode": "LS22 5GT",
        "amenity": "charging_station",
        "brand": "Gridserve",
        "brand:wikidata": "Q89575318",
        "capacity": "30",
        "opening_hours": "24/7",
        "operator": "Gridserve",
        "operator:wikidata": "Q89575318",
        "phone": "+44 800 240 4242",
        "ref": "6615c904-f32d-47d5-859f-974cdcfd40a4",
        "ref_name": "MOTO Wetherby",
        "socket:chademo": "6;1",
        "socket:chademo:output": "100 kW;50 kW",
        "socket:type2": "2",
        "socket:type2:output": "11 kW",
        "socket:type2_combo": "12;12;5",
        "socket:type2_combo:output": "360 kW;350 kW;50 kW",
        "source:ref": "Location ID in the Gridserve Open Data API released to comply with The Public Charge Point Regulations 2023. https://gridserve.com/open-data/",
        "type": "multipolygon",
        "website": "https://electrichighway.gridserve.com",
        "@timestamp": "2025-03-13T23:24:23Z",
        "@version": 1,
        "@changeset": 163592173,
        "@user": "RobJN",
        "@uid": 411244,
        "@geometry": "center"
      },
      "geometry": {
        "type": "Point",
        "coordinates": [
          -1.3695645,
          53.9477807
        ]
      },
      "id": "relation/18819383"
    },
    {
      "type": "Feature",
      "properties": {
        "@id": "relation/18819431",
        "addr:city": "Knottingley",
        "addr:postcode": "WF11 0AF",
        "amenity": "charging_station",
        "brand": "Gridserve",
        "brand:wikidata": "Q89575318",
        "opening_hours": "24/7",
        "operator": "Gridserve",
        "operator:wikidata": "Q89575318",
        "phone": "+44 800 240 4242",
        "ref": "d2a2ee55-0961-49c7-be5b-322834794d7d",
        "ref_name": "MOTO Ferrybridge",
        "socket:chademo": "6;2",
        "socket:chademo:output": "100 kW;50 kW",
        "socket:type2": "2",
        "socket:type2:output": "22 kW",
        "socket:type2_combo": "12;4",
        "socket:type2_combo:output": "350 kW;50 kW",
        "source:ref": "Location ID in the Gridserve Open Data API released to comply with The Public Charge Point Regulations 2023. https://gridserve.com/open-data/",
        "type": "multipolygon",
        "website": "https://electrichighway.gridserve.com",
        "@timestamp": "2025-03-13T23:52:25Z",
        "@version": 1,
        "@changeset": 163592639,
        "@user": "RobJN",
        "@uid": 411244,
        "@geometry": "center"
      },
      "geometry": {
        "type": "Point",
        "coordinates": [
          -1.2663342,
          53.6984095
        ]
      },
      "id": "relation/18819431"
    },
    {
      "type": "Feature",
      "properties": {
        "@id": "relation/18822973",
        "addr:city": "Wakefield",
        "addr:postcode": "WF4 4LQ",
        "amenity": "charging_station",
        "brand": "Gridserve",
        "brand:wikidata": "Q89575318",
        "opening_hours": "24/7",
        "operator": "Gridserve",
        "operator:wikidata": "Q89575318",
        "phone": "+44 800 240 4242",
        "ref": "94a51873-2e16-4a33-9249-34bfce7d02a2",
        "ref_name": "MOTO Woolley Edge Southbound",
        "socket:chademo": "3;1",
        "socket:chademo:output": "100 kW;60 kW",
        "socket:type2": "1",
        "socket:type2:output": "11 kW",
        "socket:type2_combo": "12;1",
        "socket:type2_combo:output": "200 kW;60 kW",
        "source:ref": "Location ID in the Gridserve Open Data API released to comply with The Public Charge Point Regulations 2023. https://gridserve.com/open-data/",
        "type": "multipolygon",
        "website": "https://electrichighway.gridserve.com",
        "@timestamp": "2025-03-14T17:03:22Z",
        "@version": 1,
        "@changeset": 163618861,
        "@user": "RobJN",
        "@uid": 411244,
        "@geometry": "center"
      },
      "geometry": {
        "type": "Point",
        "coordinates": [
          -1.5456655,
          53.6216512
        ]
      },
      "id": "relation/18822973"
    },
    {
      "type": "Feature",
      "properties": {
        "@id": "relation/18822974",
        "addr:city": "Wakefield",
        "addr:postcode": "WF4 4LQ",
        "amenity": "charging_station",
        "brand": "Gridserve",
        "brand:wikidata": "Q89575318",
        "opening_hours": "24/7",
        "operator": "Gridserve",
        "operator:wikidata": "Q89575318",
        "phone": "+44 800 240 4242",
        "ref": "482300a6-28e1-4137-91c0-c8371cc6c2a6",
        "ref_name": "MOTO Woolley Edge Northbound",
        "socket:chademo": "3;1",
        "socket:chademo:output": "100 kW;50 kW",
        "socket:type2": "2",
        "socket:type2:output": "11 kW",
        "socket:type2_combo": "12;1",
        "socket:type2_combo:output": "200 kW;50 kW",
        "source:ref": "Location ID in the Gridserve Open Data API released to comply with The Public Charge Point Regulations 2023. https://gridserve.com/open-data/",
        "type": "multipolygon",
        "website": "https://electrichighway.gridserve.com",
        "@timestamp": "2025-03-14T17:03:22Z",
        "@version": 1,
        "@changeset": 163618861,
        "@user": "RobJN",
        "@uid": 411244,
        "@geometry": "center"
      },
      "geometry": {
        "type": "Point",
        "coordinates": [
          -1.5498094,
          53.6222287
        ]
      },
      "id": "relation/18822974"
    },
    {
      "type": "Feature",
      "properties": {
        "@id": "relation/18822992",
        "amenity": "charging_station",
        "bicycle": "no",
        "brand": "EV Power",
        "capacity": "4",
        "motorcar": "yes",
        "note": "150 kW",
        "operator": "MFG",
        "socket:chademo": "4",
        "socket:type1_combo": "4",
        "type": "multipolygon",
        "@timestamp": "2025-03-14T17:10:58Z",
        "@version": 1,
        "@changeset": 163619161,
        "@user": "RobJN",
        "@uid": 411244,
        "@geometry": "center"
      },
      "geometry": {
        "type": "Point",
        "coordinates": [
          1.1002539,
          51.2906437
        ]
      },
      "id": "relation/18822992"
    },
    {
      "type": "Feature",
      "properties": {
        "@id": "relation/18823571",
        "addr:city": "Blyth",
        "addr:postcode": "S81 8HG",
        "amenity": "charging_station",
        "bicycle": "no",
        "brand": "Gridserve",
        "brand:wikidata": "Q89575318",
        "covered": "no",
        "fee": "yes",
        "motorcar": "yes",
        "opening_hours": "24/7",
        "operator": "Gridserve",
        "operator:wikidata": "Q89575318",
        "parking:fee": "no",
        "parking:fee:conditional": "yes @ stay > 2 hours",
        "phone": "+44 800 240 4242",
        "ref": "22b00d0f-6378-4b4e-bcdf-d445b067dbb2",
        "ref_name": "MOTO Blyth",
        "socket:chademo": "4;1",
        "socket:chademo:output": "100 kW;40 kW",
        "socket:type2": "1;1",
        "socket:type2:output": "22 kW;11 kW",
        "socket:type2_combo": "8;10;1",
        "socket:type2_combo:output": "360 kW;350 kW;40 kW",
        "source:ref": "Location ID in the Gridserve Open Data API released to comply with The Public Charge Point Regulations 2023. https://gridserve.com/open-data/",
        "truck": "no",
        "type": "multipolygon",
        "website": "https://electrichighway.gridserve.com",
        "@timestamp": "2025-03-14T21:22:21Z",
        "@version": 1,
        "@changeset": 163627821,
        "@user": "RobJN",
        "@uid": 411244,
        "@geometry": "center"
      },
      "geometry": {
        "type": "Point",
        "coordinates": [
          -1.0599763,
          53.3872307
        ]
      },
      "id": "relation/18823571"
    },
    {
      "type": "Feature",
      "properties": {
        "@id": "relation/18823572",
        "access": "private",
        "amenity": "charging_station",
        "brand": "Tesla Supercharger",
        "brand:wikidata": "Q17089620",
        "capacity": "12",
        "covered": "no",
        "fee": "yes",
        "motorcar": "yes",
        "name": "Tesla Supercharger",
        "opening_hours": "24/7",
        "operator": "Tesla, Inc.",
        "operator:wikidata": "Q478214",
        "parking:fee": "no",
        "parking:fee:conditional": "yes @ stay > 2 hours",
        "short_name": "Tesla",
        "socket:type2_combo": "12",
        "socket:type2_combo:output": "250",
        "type": "multipolygon",
        "@timestamp": "2025-03-14T21:22:21Z",
        "@version": 1,
        "@changeset": 163627821,
        "@user": "RobJN",
        "@uid": 411244,
        "@geometry": "center"
      },
      "geometry": {
        "type": "Point",
        "coordinates": [
          -1.0595869,
          53.3868378
        ]
      },
      "id": "relation/18823572"
    },
    {
      "type": "Feature",
      "properties": {
        "@id": "relation/18851227",
        "access": "yes",
        "amenity": "charging_station",
        "authentication:contactless": "yes",
        "bicycle": "no",
        "bus": "no",
        "capacity": "30",
        "covered": "no",
        "fee": "yes",
        "hgv": "no",
        "maxstay": "2 hours",
        "motorcar": "yes",
        "name": "MOTO Reading Westbound Services",
        "opening_hours": "24/7",
        "operator": "Gridserve",
        "operator:wikidata": "Q89575318",
        "parking:fee": "no",
        "payment:app": "no",
        "payment:cards": "yes",
        "payment:cash": "no",
        "payment:credit_cards": "yes",
        "payment:debit_cards": "yes",
        "payment:membership_card": "no",
        "payment:qr_code": "no",
        "phone": "+44 800 240 4242",
        "scooter": "no",
        "socket:chademo": "6;1",
        "socket:chademo:output": "100 kW;60 kW",
        "socket:type2": "2",
        "socket:type2:output": "11 kW",
        "socket:type2_combo": "12;6;3",
        "socket:type2_combo:output": "350 kW;360 kW;60 kW",
        "type": "multipolygon",
        "website": "https://electrichighway.gridserve.com/reading-westbound-services",
        "wikimedia_commons": "File:Reading Westbound Services High Power Gridserve EVSEs (Feb 2023).jpg",
        "@timestamp": "2025-03-17T18:32:13Z",
        "@version": 1,
        "@changeset": 163745298,
        "@user": "OrangeHurst97",
        "@uid": 1485723,
        "@geometry": "center"
      },
      "geometry": {
        "type": "Point",
        "coordinates": [
          -1.0380917,
          51.4234044
        ]
      },
      "id": "relation/18851227"
    },
    {
      "type": "Feature",
      "properties": {
        "@id": "relation/18851228",
        "access": "yes",
        "amenity": "charging_station",
        "authentication:contactless": "yes",
        "bicycle": "no",
        "bus": "no",
        "capacity": "24",
        "covered": "no",
        "fee": "yes",
        "fixme": "Gridserve website states a capacity of 30 with 3 new high power chargers EGS11315; EGS11316; EGS11317.\nSurvey required to find location of these chargers and confirm details before mapping.",
        "hgv": "no",
        "maxstay": "2 hours",
        "motorcar": "yes",
        "name": "MOTO Reading Eastbound Services",
        "note": "GS10377 has two sockets with one parking space.",
        "opening_hours": "24/7",
        "operator": "Gridserve",
        "operator:wikidata": "Q89575318",
        "parking:fee": "no",
        "payment:app": "no",
        "payment:cards": "yes",
        "payment:cash": "no",
        "payment:credit_cards": "yes",
        "payment:debit_cards": "yes",
        "payment:membership_card": "no",
        "payment:qr_code": "no",
        "phone": "+44 800 240 4242",
        "scooter": "no",
        "socket:chademo": "1;6",
        "socket:chademo:output": "40 kW;100 kW",
        "socket:type2": "2",
        "socket:type2:output": "11 kW",
        "socket:type2_combo": "3;12",
        "socket:type2_combo:output": "40 kW;350kW",
        "type": "multipolygon",
        "website": "https://electrichighway.gridserve.com/reading-eastbound-services",
        "@timestamp": "2025-03-17T18:32:13Z",
        "@version": 1,
        "@changeset": 163745298,
        "@user": "OrangeHurst97",
        "@uid": 1485723,
        "@geometry": "center"
      },
      "geometry": {
        "type": "Point",
        "coordinates": [
          -1.0357617,
          51.4260904
        ]
      },
      "id": "relation/18851228"
    },
    {
      "type": "Feature",
      "properties": {
        "@id": "relation/18874264",
        "addr:city": "Kinross",
        "addr:postcode": "KY13 0NQ",
        "amenity": "charging_station",
        "brand": "Gridserve",
        "brand:wikidata": "Q89575318",
        "opening_hours": "24/7",
        "operator": "Gridserve",
        "operator:wikidata": "Q89575318",
        "phone": "+44 800 240 4242",
        "ref": "09a55166-852b-41e2-a133-d2d3dc2bd43f",
        "ref_name": "MOTO Kinross",
        "socket:chademo": "3;1",
        "socket:chademo:output": "100 kW;60 kW",
        "socket:type2": "2",
        "socket:type2:output": "11 kW",
        "socket:type2_combo": "6;1",
        "socket:type2_combo:output": "350 kW;60 kW",
        "source:ref": "Location ID in the Gridserve Open Data API released to comply with The Public Charge Point Regulations 2023. https://gridserve.com/open-data/",
        "type": "multipolygon",
        "website": "https://electrichighway.gridserve.com",
        "@timestamp": "2025-03-21T19:46:40Z",
        "@version": 1,
        "@changeset": 163922281,
        "@user": "RobJN",
        "@uid": 411244,
        "@geometry": "center"
      },
      "geometry": {
        "type": "Point",
        "coordinates": [
          -3.4392704,
          56.2094981
        ]
      },
      "id": "relation/18874264"
    },
    {
      "type": "Feature",
      "properties": {
        "@id": "relation/18874266",
        "addr:city": "Glasgow",
        "addr:postcode": "G71 8BG",
        "amenity": "charging_station",
        "brand": "Gridserve",
        "brand:wikidata": "Q89575318",
        "opening_hours": "24/7",
        "operator": "Gridserve",
        "operator:wikidata": "Q89575318",
        "phone": "+44 800 240 4242",
        "ref": "1f549793-3639-4dbe-ae03-aeb501a95d93",
        "ref_name": "Roadchef Bothwell",
        "socket:chademo": "2;1",
        "socket:chademo:output": "100 kW;60 kW",
        "socket:type2": "1",
        "socket:type2:output": "22 kW",
        "socket:type2_combo": "6;1",
        "socket:type2_combo:output": "350 kW;60 kW",
        "source:ref": "Location ID in the Gridserve Open Data API released to comply with The Public Charge Point Regulations 2023. https://gridserve.com/open-data/",
        "type": "multipolygon",
        "website": "https://electrichighway.gridserve.com",
        "@timestamp": "2025-03-21T19:49:55Z",
        "@version": 1,
        "@changeset": 163922366,
        "@user": "RobJN",
        "@uid": 411244,
        "@geometry": "center"
      },
      "geometry": {
        "type": "Point",
        "coordinates": [
          -4.0619505,
          55.8140009
        ]
      },
      "id": "relation/18874266"
    },
    {
      "type": "Feature",
      "properties": {
        "@id": "relation/18874277",
        "addr:city": "Lockerbie",
        "addr:postcode": "DG11 1HD",
        "amenity": "charging_station",
        "brand": "Gridserve",
        "brand:wikidata": "Q89575318",
        "fee": "yes",
        "motorcar": "yes",
        "name": "Gridserve",
        "opening_hours": "24/7",
        "operator": "Gridserve",
        "operator:wikidata": "Q89575318",
        "phone": "+44 800 240 4242",
        "ref": "0a42f85c-1516-43ee-83ee-37ae887b7df4",
        "ref_name": "Roadchef Annandale Water",
        "socket:chademo": "3;1",
        "socket:chademo:output": "100 kW;40 kW",
        "socket:type2": "1",
        "socket:type2:output": "22 kW",
        "socket:type2_combo": "6;1",
        "socket:type2_combo:output": "350 kW;40 kW",
        "source:ref": "Location ID in the Gridserve Open Data API released to comply with The Public Charge Point Regulations 2023. https://gridserve.com/open-data/",
        "type": "multipolygon",
        "website": "https://electrichighway.gridserve.com",
        "@timestamp": "2025-04-20T14:10:43Z",
        "@version": 2,
        "@changeset": 165196230,
        "@user": "Dyserth",
        "@uid": 1892838,
        "@geometry": "center"
      },
      "geometry": {
        "type": "Point",
        "coordinates": [
          -3.4107791,
          55.2196297
        ]
      },
      "id": "relation/18874277"
    },
    {
      "type": "Feature",
      "properties": {
        "@id": "relation/18874285",
        "addr:city": "Carlisle",
        "addr:postcode": "CA4 0NT",
        "amenity": "charging_station",
        "brand": "Gridserve",
        "brand:wikidata": "Q89575318",
        "opening_hours": "24/7",
        "operator": "Gridserve",
        "operator:wikidata": "Q89575318",
        "phone": "+44 800 240 4242",
        "ref": "efa4ee60-361c-44fd-b7b3-d0ed26b690e3",
        "ref_name": "MOTO Southwaite Northbound",
        "socket:chademo": "1",
        "socket:chademo:output": "50 kW",
        "socket:type2": "1",
        "socket:type2:output": "11 kW",
        "socket:type2_combo": "6;3",
        "socket:type2_combo:output": "142 kW;50 kW",
        "source:ref": "Location ID in the Gridserve Open Data API released to comply with The Public Charge Point Regulations 2023. https://gridserve.com/open-data/",
        "type": "multipolygon",
        "website": "https://electrichighway.gridserve.com",
        "@timestamp": "2025-03-21T20:05:52Z",
        "@version": 1,
        "@changeset": 163922781,
        "@user": "RobJN",
        "@uid": 411244,
        "@geometry": "center"
      },
      "geometry": {
        "type": "Point",
        "coordinates": [
          -2.8717046,
          54.7976896
        ]
      },
      "id": "relation/18874285"
    },
    {
      "type": "Feature",
      "properties": {
        "@id": "relation/18874304",
        "access": "yes",
        "addr:city": "Birtley",
        "addr:postcode": "DH3 2SJ",
        "amenity": "charging_station",
        "brand": "Gridserve",
        "brand:wikidata": "Q89575318",
        "fee": "yes",
        "opening_hours": "24/7",
        "operator": "Gridserve",
        "operator:wikidata": "Q89575318",
        "phone": "+44 800 240 4242",
        "ref": "827980e2-7aee-438a-8cf5-c9b8a6fcf5c5",
        "ref_name": "MOTO Washington Southbound",
        "socket:chademo": "3;1",
        "socket:chademo:output": "100 kW;60 kW",
        "socket:type2": "1",
        "socket:type2:output": "11 kW",
        "socket:type2_combo": "12;3",
        "socket:type2_combo:output": "200 kW;60 kW",
        "source:ref": "Location ID in the Gridserve Open Data API released to comply with The Public Charge Point Regulations 2023. https://gridserve.com/open-data/",
        "type": "multipolygon",
        "website": "https://electrichighway.gridserve.com",
        "@timestamp": "2025-03-21T20:17:00Z",
        "@version": 1,
        "@changeset": 163923128,
        "@user": "RobJN",
        "@uid": 411244,
        "@geometry": "center"
      },
      "geometry": {
        "type": "Point",
        "coordinates": [
          -1.5581867,
          54.8903007
        ]
      },
      "id": "relation/18874304"
    },
    {
      "type": "Feature",
      "properties": {
        "@id": "relation/18874308",
        "addr:city": "Durham",
        "addr:postcode": "DH6 5NP",
        "amenity": "charging_station",
        "brand": "Gridserve",
        "brand:wikidata": "Q89575318",
        "opening_hours": "24/7",
        "operator": "Gridserve",
        "operator:wikidata": "Q89575318",
        "phone": "+44 800 240 4242",
        "ref": "1afcb07e-9aa9-485a-88cf-08b9ba79440d",
        "ref_name": "Roadchef Durham",
        "socket:chademo": "2;1",
        "socket:chademo:output": "100 kW;50 kW",
        "socket:type2": "1",
        "socket:type2:output": "22 kW",
        "socket:type2_combo": "6;1",
        "socket:type2_combo:output": "140 kW;50 kW",
        "source:ref": "Location ID in the Gridserve Open Data API released to comply with The Public Charge Point Regulations 2023. https://gridserve.com/open-data/",
        "type": "multipolygon",
        "website": "https://electrichighway.gridserve.com",
        "@timestamp": "2025-03-21T20:19:33Z",
        "@version": 1,
        "@changeset": 163923217,
        "@user": "RobJN",
        "@uid": 411244,
        "@geometry": "center"
      },
      "geometry": {
        "type": "Point",
        "coordinates": [
          -1.5232113,
          54.7291773
        ]
      },
      "id": "relation/18874308"
    },
    {
      "type": "Feature",
      "properties": {
        "@id": "relation/18874313",
        "addr:city": "Richmond",
        "addr:postcode": "DL10 6PQ",
        "amenity": "charging_station",
        "brand": "Gridserve",
        "brand:wikidata": "Q89575318",
        "opening_hours": "24/7",
        "operator": "Gridserve",
        "operator:wikidata": "Q89575318",
        "phone": "+44 800 240 4242",
        "ref": "51a1a019-852d-452a-8b33-423340789bca",
        "ref_name": "MOTO Scotch Corner",
        "socket:chademo": "6;1",
        "socket:chademo:output": "100 kW;60 kW",
        "socket:type2": "2",
        "socket:type2:output": "11 kW",
        "socket:type2_combo": "12;3",
        "socket:type2_combo:output": "350 kW;60 kW",
        "source:ref": "Location ID in the Gridserve Open Data API released to comply with The Public Charge Point Regulations 2023. https://gridserve.com/open-data/",
        "type": "multipolygon",
        "website": "https://electrichighway.gridserve.com",
        "@timestamp": "2025-03-21T20:23:17Z",
        "@version": 1,
        "@changeset": 163923328,
        "@user": "RobJN",
        "@uid": 411244,
        "@geometry": "center"
      },
      "geometry": {
        "type": "Point",
        "coordinates": [
          -1.6668947,
          54.4446365
        ]
      },
      "id": "relation/18874313"
    },
    {
      "type": "Feature",
      "properties": {
        "@id": "relation/18874362",
        "addr:city": "Exeter",
        "addr:postcode": "EX2 7HF",
        "amenity": "charging_station",
        "brand": "Gridserve",
        "brand:wikidata": "Q89575318",
        "opening_hours": "24/7",
        "operator": "Gridserve",
        "operator:wikidata": "Q89575318",
        "phone": "+44 800 240 4242",
        "ref": "1d1e627e-8d55-40d0-8719-eb278d11d353",
        "ref_name": "MOTO Exeter",
        "socket:chademo": "12",
        "socket:chademo:output": "100 kW",
        "socket:type2": "2",
        "socket:type2:output": "11 kW",
        "socket:type2_combo": "12;24",
        "socket:type2_combo:output": "360 kW;350 kW",
        "source:ref": "Location ID in the Gridserve Open Data API released to comply with The Public Charge Point Regulations 2023. https://gridserve.com/open-data/",
        "type": "multipolygon",
        "website": "https://electrichighway.gridserve.com",
        "@timestamp": "2025-03-21T20:47:37Z",
        "@version": 1,
        "@changeset": 163924022,
        "@user": "RobJN",
        "@uid": 411244,
        "@geometry": "center"
      },
      "geometry": {
        "type": "Point",
        "coordinates": [
          -3.4644517,
          50.7158673
        ]
      },
      "id": "relation/18874362"
    },
    {
      "type": "Feature",
      "properties": {
        "@id": "relation/18874419",
        "addr:city": "Taunton",
        "addr:postcode": "TA3 7PF",
        "amenity": "charging_station",
        "brand": "Gridserve",
        "brand:wikidata": "Q89575318",
        "opening_hours": "24/7",
        "operator": "Gridserve",
        "operator:wikidata": "Q89575318",
        "phone": "+44 800 240 4242",
        "ref": "054e8b52-6c7c-4240-bc81-1bf1ee01fdfa",
        "ref_name": "Roadchef Taunton Deane Northbound",
        "socket:chademo": "1",
        "socket:chademo:output": "50 kW",
        "socket:type2": "1",
        "socket:type2:output": "22 kW",
        "socket:type2_combo": "6;1",
        "socket:type2_combo:output": "360 kW;40 kW",
        "source:ref": "Location ID in the Gridserve Open Data API released to comply with The Public Charge Point Regulations 2023. https://gridserve.com/open-data/",
        "type": "multipolygon",
        "website": "https://electrichighway.gridserve.com",
        "@timestamp": "2025-03-21T21:08:56Z",
        "@version": 1,
        "@changeset": 163924675,
        "@user": "RobJN",
        "@uid": 411244,
        "@geometry": "center"
      },
      "geometry": {
        "type": "Point",
        "coordinates": [
          -3.1487629,
          50.9776334
        ]
      },
      "id": "relation/18874419"
    },
    {
      "type": "Feature",
      "properties": {
        "@id": "relation/18874570",
        "addr:city": "Southampton",
        "addr:postcode": "SO16 8AP",
        "amenity": "charging_station",
        "brand": "Gridserve",
        "brand:wikidata": "Q89575318",
        "opening_hours": "24/7",
        "operator": "Gridserve",
        "operator:wikidata": "Q89575318",
        "phone": "+44 800 240 4242",
        "ref": "5fb8bf8d-a9e7-4c44-95a3-301afb74b88c",
        "ref_name": "Roadchef Rownhams Eastbound",
        "socket:chademo": "2;1",
        "socket:chademo:output": "100 kW;50 kW",
        "socket:type2": "2",
        "socket:type2:output": "11 kW",
        "socket:type2_combo": "6;1",
        "socket:type2_combo:output": "350 kW;45 kW",
        "source:ref": "Location ID in the Gridserve Open Data API released to comply with The Public Charge Point Regulations 2023. https://gridserve.com/open-data/",
        "type": "multipolygon",
        "website": "https://electrichighway.gridserve.com",
        "@timestamp": "2025-03-21T23:06:49Z",
        "@version": 1,
        "@changeset": 163927665,
        "@user": "RobJN",
        "@uid": 411244,
        "@geometry": "center"
      },
      "geometry": {
        "type": "Point",
        "coordinates": [
          -1.4483382,
          50.9580521
        ]
      },
      "id": "relation/18874570"
    },
    {
      "type": "Feature",
      "properties": {
        "@id": "relation/18874571",
        "addr:city": "Southampton",
        "addr:postcode": "SO16 8AP",
        "amenity": "charging_station",
        "brand": "Gridserve",
        "brand:wikidata": "Q89575318",
        "opening_hours": "24/7",
        "operator": "Gridserve",
        "operator:wikidata": "Q89575318",
        "phone": "+44 800 240 4242",
        "ref": "28e5ee3b-2173-4112-95e3-29f78f18a5ae",
        "ref_name": "Roadchef Rownhams Westbound",
        "socket:chademo": "1",
        "socket:chademo:output": "40 kW",
        "socket:type2": "2",
        "socket:type2:output": "11 kW",
        "socket:type2_combo": "6;1",
        "socket:type2_combo:output": "41 kW;40 kW",
        "source:ref": "Location ID in the Gridserve Open Data API released to comply with The Public Charge Point Regulations 2023. https://gridserve.com/open-data/",
        "type": "multipolygon",
        "website": "https://electrichighway.gridserve.com",
        "@timestamp": "2025-03-21T23:06:49Z",
        "@version": 1,
        "@changeset": 163927665,
        "@user": "RobJN",
        "@uid": 411244,
        "@geometry": "center"
      },
      "geometry": {
        "type": "Point",
        "coordinates": [
          -1.448455,
          50.9568578
        ]
      },
      "id": "relation/18874571"
    },
    {
      "type": "Feature",
      "properties": {
        "@id": "relation/18877958",
        "addr:city": "Winchester",
        "addr:postcode": "SO21 1PP",
        "amenity": "charging_station",
        "brand": "Gridserve",
        "brand:wikidata": "Q89575318",
        "opening_hours": "24/7",
        "operator": "Gridserve",
        "operator:wikidata": "Q89575318",
        "phone": "+44 800 240 4242",
        "ref": "2ba93563-789d-44b4-a048-648674d42788",
        "ref_name": "MOTO Winchester Northbound",
        "socket:chademo": "1",
        "socket:chademo:output": "40 kW",
        "socket:type2": "2",
        "socket:type2:output": "11 kW",
        "socket:type2_combo": "6;3",
        "socket:type2_combo:output": "180 kW;40 kW",
        "source:ref": "Location ID in the Gridserve Open Data API released to comply with The Public Charge Point Regulations 2023. https://gridserve.com/open-data/",
        "type": "multipolygon",
        "website": "https://electrichighway.gridserve.com",
        "@timestamp": "2025-03-22T14:40:34Z",
        "@version": 1,
        "@changeset": 163950523,
        "@user": "RobJN",
        "@uid": 411244,
        "@geometry": "center"
      },
      "geometry": {
        "type": "Point",
        "coordinates": [
          -1.2547343,
          51.1202202
        ]
      },
      "id": "relation/18877958"
    },
    {
      "type": "Feature",
      "properties": {
        "@id": "relation/18878555",
        "addr:city": "Winchester",
        "addr:postcode": "SO21 1PP",
        "amenity": "charging_station",
        "brand": "Gridserve",
        "brand:wikidata": "Q89575318",
        "opening_hours": "24/7",
        "operator": "Gridserve",
        "operator:wikidata": "Q89575318",
        "phone": "+44 800 240 4242",
        "ref": "6ab1ee65-7946-4dd8-adc8-48b27ffad65b",
        "ref_name": "MOTO Winchester Southbound",
        "socket:chademo": "1",
        "socket:chademo:output": "50 kW",
        "socket:type2": "1",
        "socket:type2:output": "11 kW",
        "socket:type2_combo": "6;3",
        "socket:type2_combo:output": "237 kW;50 kW",
        "source:ref": "Location ID in the Gridserve Open Data API released to comply with The Public Charge Point Regulations 2023. https://gridserve.com/open-data/",
        "type": "multipolygon",
        "website": "https://electrichighway.gridserve.com",
        "@timestamp": "2025-03-22T17:04:01Z",
        "@version": 1,
        "@changeset": 163956697,
        "@user": "RobJN",
        "@uid": 411244,
        "@geometry": "center"
      },
      "geometry": {
        "type": "Point",
        "coordinates": [
          -1.2545515,
          51.115527
        ]
      },
      "id": "relation/18878555"
    },
    {
      "type": "Feature",
      "properties": {
        "@id": "relation/18880027",
        "addr:city": "Lancaster",
        "addr:postcode": "LA2 9DU",
        "amenity": "charging_station",
        "brand": "Gridserve",
        "brand:wikidata": "Q89575318",
        "opening_hours": "24/7",
        "operator": "Gridserve",
        "operator:wikidata": "Q89575318",
        "phone": "+44 800 240 4242",
        "ref": "efc3f62b-02df-4748-9d74-f5d9f17382e4",
        "ref_name": "MOTO Lancaster Northbound",
        "socket:chademo": "5;1",
        "socket:chademo:output": "100 kW;50 kW",
        "socket:type2": "1",
        "socket:type2:output": "11 kW",
        "socket:type2_combo": "12;3",
        "socket:type2_combo:output": "350 kW;50 kW",
        "source:ref": "Location ID in the Gridserve Open Data API released to comply with The Public Charge Point Regulations 2023. https://gridserve.com/open-data/",
        "type": "multipolygon",
        "website": "https://electrichighway.gridserve.com",
        "@timestamp": "2025-03-23T00:41:28Z",
        "@version": 1,
        "@changeset": 163968378,
        "@user": "RobJN",
        "@uid": 411244,
        "@geometry": "center"
      },
      "geometry": {
        "type": "Point",
        "coordinates": [
          -2.759533,
          53.9612632
        ]
      },
      "id": "relation/18880027"
    },
    {
      "type": "Feature",
      "properties": {
        "@id": "relation/18908453",
        "addr:city": "Heywood",
        "addr:postcode": "OL10 2RB",
        "amenity": "charging_station",
        "brand": "Gridserve",
        "brand:wikidata": "Q89575318",
        "opening_hours": "24/7",
        "operator": "Gridserve",
        "operator:wikidata": "Q89575318",
        "phone": "+44 800 240 4242",
        "ref": "3f4c8eac-d838-4f7f-aeea-dce5dbe74147",
        "ref_name": "MOTO Birch Westbound",
        "socket:chademo": "3;2",
        "socket:chademo:output": "100 kW;40 kW",
        "socket:type2": "2",
        "socket:type2:output": "11 kW",
        "socket:type2_combo": "6;4",
        "socket:type2_combo:output": "350 kW;40 kW",
        "source:ref": "Location ID in the Gridserve Open Data API released to comply with The Public Charge Point Regulations 2023. https://gridserve.com/open-data/",
        "type": "multipolygon",
        "website": "https://electrichighway.gridserve.com",
        "@timestamp": "2025-03-28T22:39:52Z",
        "@version": 1,
        "@changeset": 164229687,
        "@user": "RobJN",
        "@uid": 411244,
        "@geometry": "center"
      },
      "geometry": {
        "type": "Point",
        "coordinates": [
          -2.2296127,
          53.567735
        ]
      },
      "id": "relation/18908453"
    },
    {
      "type": "Feature",
      "properties": {
        "@id": "relation/18982877",
        "access": "yes",
        "amenity": "charging_station",
        "capacity": "15",
        "fee": "yes",
        "name": "Gridserve - MOTO Leigh Delamere Westbound Services",
        "note": "Some of the newer charging units have multiple sockets but only one parking space and cannot power more than one car at a time.",
        "operator": "Gridserve",
        "operator:wikidata": "Q89575318",
        "payment:contactless": "yes",
        "socket:chademo": "3;1",
        "socket:chademo:output": "100kW;40kW",
        "socket:type2": "2",
        "socket:type2:output": "11kW",
        "socket:type2_combo": "12;1",
        "socket:type2_combo:output": "350kW;40kW",
        "type": "multipolygon",
        "website": "https://electrichighway.gridserve.com/leigh-delamere-westbound-services",
        "@timestamp": "2025-04-12T17:55:10Z",
        "@version": 1,
        "@changeset": 164866800,
        "@user": "OrangeHurst97",
        "@uid": 1485723,
        "@geometry": "center"
      },
      "geometry": {
        "type": "Point",
        "coordinates": [
          -2.1570694,
          51.5100504
        ]
      },
      "id": "relation/18982877"
    }
  ]
}